CORVUS BC5              
1 46931U 20085C   23293.42175371  .00065538  00000+0  10402-2 0  9992
2 46931  97.4982  83.2498 0006835 111.4209 248.7773 15.53120057162622
BRO-3                   
1 46943U 20085Q   23293.55435193  .00109909  00000+0  13276-2 0  9993
2 46943  97.4756  81.9408 0003007 149.0607 211.0827 15.60360098162663
GONETS-M 20             
1 47227U 20091A   23293.60841322  .00000038  00000+0  20249-3 0  9999
2 47227  82.5076 185.7115 0020822 136.7967 223.4750 12.42896543130509
GONETS-M 21             
1 47228U 20091B   23293.50085071  .00000039  00000+0  20813-3 0  9998
2 47228  82.5001 185.0883 0014557 149.4881 210.7049 12.42871624130487
GONETS-M 22             
1 47229U 20091C   23293.55464291  .00000043  00000+0  23481-3 0  9998
2 47229  82.5058 185.5005 0021794 130.3081 229.9908 12.42868776130449
HAISI 1                 
1 47297U 20102B   23293.57813538  .00035594  00000+0  10285-2 0  9996
2 47297  97.4292  32.5797 0004496 147.9683 212.1835 15.35554834157084
ET-SMART-RSS            
1 47300U 20102E   23293.32064161  .03151141  24349-5  17261-2 0  9993
2 47300  97.4155  47.9799 0010134 293.7751  66.2475 16.19509625158047
CAPE-3                  
1 47309U 21002A   23293.55138314  .00084254  00000+0  12644-2 0  9998
2 47309  60.6719 292.5853 0022898  16.2550 343.9281 15.54065614153675
RADFXSAT-2 (AO-109)     
1 47311U 21002C   23293.45310056  .00052644  00000+0  98308-3 0  9995
2 47311  60.6775 294.1709 0020415  16.5347 343.6413 15.48185178153617
CP12 (EXOCUBE 2)        
1 47319U 21002L   23293.59390319  .00051346  00000+0  99858-3 0  9997
2 47319  60.6754 296.4418 0021245  15.3859 344.7881 15.47006435153552
UVSQ-SAT                
1 47438U 21006AB  23293.10346376  .00034085  00000+0  11962-2 0  9994
2 47438  97.3682 348.6868 0008718   9.5154 350.6249 15.29308211151709
YUSAT-1                 
1 47439U 21006AC  23293.12974877  .00039947  00000+0  12285-2 0  9991
2 47439  97.3686 350.0817 0007667   4.1746 355.9559 15.33539339151798
2021-006AE              
1 47441U 21006AE  23293.55099572  .00050294  00000+0  14526-2 0  9999
2 47441  97.3585 350.2745 0007289   3.1178 357.0110 15.35471725151869
SOMP2B                  
1 47445U 21006AJ  23293.16018049  .00024336  00000+0  88159-3 0  9992
2 47445  97.3644 347.7817 0008849  16.6804 343.4725 15.28337978151671
CUBEL                   
1 47448U 21006AM  23293.14203564  .00005775  00000+0  28820-3 0  9996
2 47448  97.3809 345.6632 0011861  28.1545 332.0328 15.17830346151417
FLOCK 4S-21             
1 47456U 21006AV  23293.15221824  .00025633  00000+0  76169-3 0  9999
2 47456  97.3746 351.9833 0006932 359.6541   0.4696 15.34727835151860
IDEASSAT                
1 47458U 21006AX  23293.46523712  .00023132  00000+0  86362-3 0  9994
2 47458  97.3739 348.8816 0008215  15.3130 344.8356 15.27359056151693
NASA PTD-1              
1 47482U 21006BX  23293.15813754  .00101595  00000+0  20200-2 0  9993
2 47482  97.3797 353.4208 0003071  19.3400 340.7965 15.46576903151920
ASTROCAST-0103          
1 47487U 21006CC  23293.12123229  .00012387  00000+0  56048-3 0  9996
2 47487  97.3875 346.1850 0009155  47.2154 312.9850 15.21008535151444
ASTROCAST-0102          
1 47488U 21006CD  23293.15622014  .00014065  00000+0  63491-3 0  9991
2 47488  97.3804 345.5301 0009587  26.4997 333.6727 15.21054341151443
LEMUR-2-RUAIRI-EILIDH   
1 47511U 21006DC  23293.40812430  .00078315  00000+0  17344-2 0  9992
2 47511  97.3703 352.2998 0002655   4.2385 355.8885 15.43494252151959
ASTROCAST-0104          
1 47519U 21006DK  23293.36866024  .00011247  00000+0  50893-3 0  9991
2 47519  97.3833 345.9424 0008384  25.4479 334.7168 15.21036084151476
FLOCK 4S-29             
1 47520U 21006DL  23293.15973172  .00065970  00000+0  15998-2 0  9991
2 47520  97.3659 351.1832 0004767   8.0871 352.0451 15.40811246151874
FLOCK 4S-10             
1 47523U 21006DP  23293.13158795  .00023827  00000+0  71143-3 0  9998
2 47523  97.3718 350.9579 0005601  19.5051 340.6406 15.34598417151837
FLOCK 4S-7              
1 47527U 21006DT  23293.10578899  .00029232  00000+0  88289-3 0  9995
2 47527  97.3676 350.5820 0005351  18.1526 341.9907 15.34194929152799
LEMUR-2-CHANTAL         
1 47529U 21006DV  23293.11929943  .00043611  00000+0  11943-2 0  9997
2 47529  97.3705 350.7971 0004432  14.2286 345.9082 15.37186301152787
HIBER-4                 
1 47541U 21006EB  23293.16244516  .00034414  00000+0  11263-2 0  9998
2 47541  97.3650 348.8087 0007546  12.2858 347.8566 15.31580598151730
SAI-1 NANOCONNECT-2     
1 47701U 21015C   23293.24176497  .00280414  00000+0  17841-2 0  9998
2 47701  97.3684  21.0498 0001757 191.6326 168.4899 15.75647667147629
ARKTIKA-M 1             
1 47719U 21016A   23291.99093314  .00000190  00000+0  00000+0 0  9991
2 47719  63.1444 178.9387 6889726 269.3757  18.1644  2.00608593 19287
STARLINK-2342           
1 47883U 21021Z   23293.23371248  .00018546  00000+0  12595-2 0  9992
2 47883  53.0545 228.7341 0001295  90.5873 269.5264 15.06434736144945
GRUS-1B                 
1 47934U 21022C   23293.55052219  .00002494  00000+0  23182-3 0  9999
2 47934  97.6472 187.5552 0018416 344.1431  15.9211 14.95132180140645
2021-022F               
1 47937U 21022F   23293.54968004  .00007542  00000+0  43643-3 0  9992
2 47937  97.4798 188.6408 0012996 255.4423 104.5366 15.12458529142030
2021-022G               
1 47938U 21022G   23293.58912843  .00017613  00000+0  89847-3 0  9993
2 47938  97.4770 188.8921 0014617 260.2633  99.6950 15.16706062142071
2021-022H               
1 47939U 21022H   23293.56406271  .00023280  00000+0  10363-2 0  9998
2 47939  97.4809 191.8179 0011032 232.9071 127.1157 15.21415027142221
WILDTRACKCUBE-SIMBA     
1 47941U 21022K   23293.53751681  .00013596  00000+0  73626-3 0  9997
2 47941  97.4797 188.3957 0015938 263.0037  96.9382 15.14633748141968
HIBER-3                 
1 47942U 21022L   23293.25579930  .00021034  00000+0  10028-2 0  9994
2 47942  97.4767 189.5848 0013155 254.6739 105.3042 15.19048698142049
2021-022M               
1 47943U 21022M   23293.55687401  .00024013  00000+0  10650-2 0  9992
2 47943  97.4801 191.9435 0011071 232.5861 127.4367 15.21533791142090
ELSA-D                  
1 47944U 21022N   23293.27315383  .00016616  00000+0  81282-3 0  9999
2 47944  97.4792 189.4683 0012327 249.1722 110.8192 15.18212731142043
UNISAT-7                
1 47945U 21022P   23293.23872974  .00009132  00000+0  51914-3 0  9994
2 47945  97.4783 188.1543 0013862 254.7831 105.1867 15.13026736141827
2021-022Q               
1 47946U 21022Q   23293.56086026  .00013938  00000+0  72212-3 0  9999
2 47946  97.4791 189.7658 0013259 245.3648 114.6204 15.16228735142088
NANOSATC-BR2            
1 47950U 21022U   23293.59253848  .00023057  00000+0  10876-2 0  9995
2 47950  97.4765 189.7553 0013590 256.9444 103.0274 15.19393308142089
CUBESX-SIRIUS-HSE       
1 47951U 21022V   23293.59317528  .00017495  00000+0  89864-3 0  9995
2 47951  97.4796 189.0208 0015223 260.0347  99.9168 15.16456230142016
CUBESX-HSE              
1 47952U 21022W   23293.56074338  .00016351  00000+0  83852-3 0  9993
2 47952  97.4794 189.0480 0015034 259.2097 100.7444 15.16530526142018
2021-022X               
1 47953U 21022X   23293.56692085  .00011485  00000+0  64130-3 0  9990
2 47953  97.4776 187.7192 0015791 265.2918  94.6510 15.13583300141674
KSU-CUBESAT             
1 47954U 21022Y   23293.19877531  .00020334  00000+0  10056-2 0  9991
2 47954  97.4802 189.2691 0014258 258.6532 101.3100 15.17766837141719
CHALLENGE ONE           
1 47956U 21022AA  23293.26657524  .00019162  00000+0  97439-3 0  9997
2 47956  97.4802 188.7661 0015465 262.6349  97.3127 15.16787236141756
2021-022AC              
1 47958U 21022AC  23293.53549472  .00012646  00000+0  69731-3 0  9995
2 47958  97.4756 187.6693 0016214 265.1926  94.7454 15.14002287140758
GRBALPHA                
1 47959U 21022AD  23293.54035170  .00017447  00000+0  89219-3 0  9999
2 47959  97.4797 189.1325 0015008 259.6900 100.2642 15.16616167140834
ORBICRAFT-ZORKY         
1 47960U 21022AE  23293.56306762  .00017903  00000+0  89035-3 0  9994
2 47960  97.4833 189.7873 0014432 257.6037 102.3581 15.17595186141553
3B5GSAT (SATELIOT 1)    
1 47961U 21022AF  23293.20990107  .00052518  00000+0  18661-2 0  9995
2 47961  97.4780 193.4807 0010501 238.3507 121.6709 15.28781998141067
STECCO                  
1 47962U 21022AG  23293.57118637  .00036904  00000+0  14059-2 0  9994
2 47962  97.4802 193.4828 0008218 231.7204 128.3296 15.26591967141124
SMOG-1                  
1 47964U 21022AJ  23293.27937067  .00041343  00000+0  15181-2 0  9999
2 47964  97.4815 193.9956 0010026 227.6775 132.3616 15.27767897141123
CENTAURI-3 (TYVAK-0210) 
1 47966U 21023B   23293.56235432  .00036850  00000+0  13635-2 0  9990
2 47966  45.0080 136.8960 0008335 210.8120 149.2275 15.27102087142366
GLOBAL-9                
1 47971U 21023G   23293.30223551  .00039233  00000+0  84806-3 0  9994
2 47971  44.9942 254.1059 0005630  83.9860 276.1670 15.43891672145258
BCCSAT-1                
1 48041U 21022AK  23293.26480111  .00032613  00000+0  13274-2 0  9999
2 48041  97.4819 192.3894 0008304 230.9111 129.1388 15.24407107140991
BEESAT-8                
1 48085U 21022AP  23293.18972600  .00019921  00000+0  93716-3 0  9994
2 48085  97.4839 190.3314 0013687 255.8760 104.0954 15.19516471141140
2021-033E               
1 48252U 21033E   23293.52782931  .00021431  00000+0  61914-3 0  9990
2 48252  97.2966   3.4922 0007310 325.5999  34.4771 15.35646271138171
2021-033H               
1 48255U 21033H   23293.57116654  .00251488  00000+0  17791-2 0  9991
2 48255  97.3058  13.2615 0009480 294.2187  65.8086 15.73207557138759
AII-BRAVO               
1 48270U 21034C   23293.12533891  .00006330  00000+0  66262-3 0  9998
2 48270  97.6900 356.1588 0002321 245.4933 114.6043 14.89945274134345
